*******************************************************************************
 Revised: April 12, 2021               Jupiter                              599
 
 PHYSICAL DATA (revised 2025-Jan-30):
  Mass x 10^26 (kg)     = 18.9819           Density (g/cm^3)  = 1.3262 +- .0003
  Equat. radius (1 bar) = 71492+-4 km       Polar radius (km)     = 66854+-10
  Vol. Mean Radius (km) = 69911+-6          Flattening            = 0.06487
  Geometric Albedo      = 0.52              Rocky core mass (Mc/M)= 0.0261
  Sid. rot. period (III)= 9h 55m 29.711 s   Sid. rot. rate (rad/s)= 0.00017585
  Mean solar day, hrs   = ~9.9259         
  GM (km^3/s^2)         = 126686531.900     GM 1-sigma (km^3/s^2) =  +- 1.2732
  Equ. grav, ge (m/s^2) = 24.79             Pol. grav, gp (m/s^2) =  28.34
  Vis. magnitude V(1,0) = -9.40
  Vis. mag. (opposition)= -2.70             Obliquity to orbit    =  3.13 deg
  Sidereal orbit period = 11.861982204 y    Sidereal orbit period = 4332.589 d
  Mean daily motion     = 0.0831294 deg/d   Mean orbit speed, km/s= 13.0697
  Atmos. temp. (1 bar)  = 165+-5 K          Escape speed, km/s    =  59.5           
  A_roche(ice)/Rp       =  2.76             Hill's sphere rad. Rp = 740
                                 Perihelion   Aphelion     Mean
  Solar Constant (W/m^2)         56           46           51
  Maximum Planetary IR (W/m^2)   13.7         13.4         13.6
  Minimum Planetary IR (W/m^2)   13.7         13.4         13.6
*******************************************************************************


*******************************************************************************
Ephemeris / WWW_USER Wed May 27 02:35:53 2026 Pasadena, USA      / Horizons
*******************************************************************************
Target body name: Jupiter (599)                   {source: jup365_merged}
Center body name: Solar System Barycenter (0)     {source: DE441}
Center-site name: BODY CENTER
*******************************************************************************
Start time      : A.D. 1800-Jan-01 00:00:00.0000 TDB
Stop  time      : A.D. 2000-Jan-01 00:00:00.0000 TDB
Step-size       : 14400 minutes
*******************************************************************************
Center geodetic : 0.0, 0.0, 0.0                   {E-lon(deg),Lat(deg),Alt(km)}
Center cylindric: 0.0, 0.0, 0.0                   {E-lon(deg),Dxy(km),Dz(km)}
Center radii    : (undefined)
Output units    : KM-S
Calendar mode   : Mixed Julian/Gregorian
Output type     : GEOMETRIC cartesian states
Output format   : 3 (position, velocity, LT, range, range-rate)
Reference frame : Ecliptic of J2000.0
*******************************************************************************
JDTDB
   X     Y     Z
   VX    VY    VZ
   LT    RG    RR
*******************************************************************************
$$SOE
2425056.500000000 = A.D. 1927-Jun-25 00:00:00.0000 TDB 
 X = 7.346274517560341E+08 Y =-1.113581196977983E+08 Z =-1.602605938774151E+07
 VX= 1.790859487109316E+00 VY= 1.352898942853057E+01 VZ=-9.543829050674102E-02
 LT= 2.479023037984566E+03 RG= 7.431924099960203E+08 RR=-2.548717942286422E-01
2425066.500000000 = A.D. 1927-Jul-05 00:00:00.0000 TDB 
 X = 7.360855332442025E+08 Y =-9.965662107313357E+07 Z =-1.610661565863649E+07
 VX= 1.584601353168926E+00 VY= 1.355801027289550E+01 VZ=-9.099007951464522E-02
 LT= 2.478299916806618E+03 RG= 7.429756237206515E+08 RR=-2.466807956463778E-01
2425076.500000000 = A.D. 1927-Jul-15 00:00:00.0000 TDB 
 X = 7.373657090544928E+08 Y =-8.793151792547591E+07 Z =-1.618330975733633E+07
 VX= 1.379379204003853E+00 VY= 1.358262870036597E+01 VZ=-8.653638346453718E-02
 LT= 2.477602280447247E+03 RG= 7.427664776016855E+08 RR=-2.367282240507856E-01
2425086.500000000 = A.D. 1927-Jul-25 00:00:00.0000 TDB 
 X = 7.384681999086353E+08 Y =-7.618463634571674E+07 Z =-1.625607674778330E+07
 VX= 1.172562674999221E+00 VY= 1.360795497897199E+01 VZ=-8.193121329317510E-02
 LT= 2.476932159352161E+03 RG= 7.425655803514320E+08 RR=-2.282424313601942E-01
2425096.500000000 = A.D. 1927-Aug-04 00:00:00.0000 TDB 
 X = 7.393921244494570E+08 Y =-6.441955997133599E+07 Z =-1.632493108414361E+07
 VX= 9.657341955664382E-01 VY= 1.362577853809680E+01 VZ=-7.744700846527142E-02
 LT= 2.476288490107772E+03 RG= 7.423726131665176E+08 RR=-2.188201439826111E-01
2425106.500000000 = A.D. 1927-Aug-14 00:00:00.0000 TDB 
 X = 7.401371658976456E+08 Y =-5.263888359939224E+07 Z =-1.638984013322823E+07
 VX= 7.587665859902681E-01 VY= 1.364297307830340E+01 VZ=-7.283558005082025E-02
 LT= 2.475671509185278E+03 RG= 7.421876469392239E+08 RR=-2.093348742915201E-01
2425116.500000000 = A.D. 1927-Aug-24 00:00:00.0000 TDB 
 X = 7.407034240432178E+08 Y =-4.084509975886486E+07 Z =-1.645077197834476E+07
 VX= 5.508589298291744E-01 VY= 1.365801216129628E+01 VZ=-6.817632135097451E-02
 LT= 2.475082701756156E+03 RG= 7.420111269127587E+08 RR=-2.004258632193018E-01
2425126.500000000 = A.D. 1927-Sep-03 00:00:00.0000 TDB 
 X = 7.410898306733577E+08 Y =-2.904187269161255E+07 Z =-1.650774514451654E+07
 VX= 3.451222693892805E-01 VY= 1.366455824559664E+01 VZ=-6.364782364548383E-02
 LT= 2.474519724582169E+03 RG= 7.418423506019714E+08 RR=-1.887558382277136E-01
2425136.500000000 = A.D. 1927-Sep-13 00:00:00.0000 TDB 
 X = 7.412970164409381E+08 Y =-1.723099285744388E+07 Z =-1.656069469862097E+07
 VX= 1.347396154646626E-01 VY= 1.367311662472339E+01 VZ=-5.897634892155867E-02
 LT= 2.473985394897991E+03 RG= 7.416821625925694E+08 RR=-1.816716343552428E-01
2425146.500000000 = A.D. 1927-Sep-23 00:00:00.0000 TDB 
 X = 7.413243447337419E+08 Y =-5.416200618706225E+06 Z =-1.660964444990991E+07
 VX=-7.261354325545549E-02 VY= 1.367616938775411E+01 VZ=-5.432155319997722E-02
 LT= 2.473478417009585E+03 RG= 7.415301744452523E+08 RR=-1.712685567819584E-01
2425156.500000000 = A.D. 1927-Oct-03 00:00:00.0000 TDB 
 X = 7.411716054424906E+08 Y = 6.399928708361158E+06 Z =-1.665456731378927E+07
 VX=-2.799732397035904E-01 VY= 1.367483480622060E+01 VZ=-4.967798989665084E-02
 LT= 2.472998585822694E+03 RG= 7.413863246743094E+08 RR=-1.607298088742309E-01
2425166.500000000 = A.D. 1927-Oct-13 00:00:00.0000 TDB 
 X = 7.408393261019682E+08 Y = 1.821492946618081E+07 Z =-1.669543221057548E+07
 VX=-4.908088151994048E-01 VY= 1.367397409634318E+01 VZ=-4.493859188136451E-02
 LT= 2.472548053523406E+03 RG= 7.412512584888973E+08 RR=-1.535103349807914E-01
2425176.500000000 = A.D. 1927-Oct-23 00:00:00.0000 TDB 
 X = 7.403265986512965E+08 Y = 3.002497536869526E+07 Z =-1.673226935856897E+07
 VX=-6.955441086739415E-01 VY= 1.366546667053942E+01 VZ=-4.025179544143143E-02
 LT= 2.472123918834530E+03 RG= 7.411241061079961E+08 RR=-1.402612588926031E-01
2425186.500000000 = A.D. 1927-Nov-02 00:00:00.0000 TDB 
 X = 7.396342234505868E+08 Y = 4.182834097220062E+07 Z =-1.676501746382769E+07
 VX=-9.055524041899738E-01 VY= 1.365529085904714E+01 VZ=-3.557209799031558E-02
 LT= 2.471728987799807E+03 RG= 7.410057087623562E+08 RR=-1.322567682504351E-01
2425196.500000000 = A.D. 1927-Nov-12 00:00:00.0000 TDB 
 X = 7.387619560437367E+08 Y = 5.362134601428758E+07 Z =-1.679370101286696E+07
 VX=-1.114868478986778E+00 VY= 1.364247966139786E+01 VZ=-3.085380172178542E-02
 LT= 2.471362187901980E+03 RG= 7.408957449193925E+08 RR=-1.236019331435346E-01
2425206.500000000 = A.D. 1927-Nov-22 00:00:00.0000 TDB 
 X = 7.377097682839592E+08 Y = 6.540123828854300E+07 Z =-1.681830537822544E+07
 VX=-1.320215633235255E+00 VY= 1.362538885895184E+01 VZ=-2.609529888969764E-02
 LT= 2.471023094152292E+03 RG= 7.407940871706811E+08 RR=-1.112047032522130E-01
2425216.500000000 = A.D. 1927-Dec-02 00:00:00.0000 TDB 
 X = 7.364783977216456E+08 Y = 7.716567458142510E+07 Z =-1.683880114090421E+07
 VX=-1.530741196841458E+00 VY= 1.360604735319711E+01 VZ=-2.137127747868472E-02
 LT= 2.470713816989897E+03 RG= 7.407013682099633E+08 RR=-1.040610132457637E-01
2425226.500000000 = A.D. 1927-Dec-12 00:00:00.0000 TDB 
 X = 7.350672922161990E+08 Y = 8.891083319720984E+07 Z =-1.685522259340662E+07
 VX=-1.736224456762753E+00 VY= 1.358237132276964E+01 VZ=-1.660725548506825E-02
 LT= 2.470431535112673E+03 RG= 7.406167422321415E+08 RR=-9.227706602602410E-02
2425236.500000000 = A.D. 1927-Dec-22 00:00:00.0000 TDB 
 X = 7.334774280207593E+08 Y = 1.006348336217965E+08 Z =-1.686752086686484E+07
 VX=-1.942684747164563E+00 VY= 1.355614159570114E+01 VZ=-1.183099553239231E-02
 LT= 2.470178993724450E+03 RG= 7.405410322286193E+08 RR=-8.169135209489424E-02
2425246.500000000 = A.D. 1928-Jan-01 00:00:00.0000 TDB 
 X = 7.317087519421929E+08 Y = 1.123342124614445E+08 Z =-1.687571954383180E+07
 VX=-2.151273011343236E+00 VY= 1.352464613675705E+01 VZ=-7.163287663376039E-03
 LT= 2.469954763542537E+03 RG= 7.404738097112259E+08 RR=-7.387693024858791E-02
2425256.500000000 = A.D. 1928-Jan-11 00:00:00.0000 TDB 
 X = 7.297616356826214E+08 Y = 1.240061605274195E+08 Z =-1.687981007584109E+07
 VX=-2.356142806958206E+00 VY= 1.349246148728099E+01 VZ=-2.343976012256554E-03
 LT= 2.469758884972669E+03 RG= 7.404150867932956E+08 RR=-6.244432151727612E-02
2425266.500000000 = A.D. 1928-Jan-21 00:00:00.0000 TDB 
 X = 7.276369783121464E+08 Y = 1.356482507293649E+08 Z =-1.687977362745333E+07
 VX=-2.562606721633522E+00 VY= 1.345669511916942E+01 VZ= 2.434043591499346E-03
 LT= 2.469593195818743E+03 RG= 7.403654144345762E+08 RR=-5.309721842280234E-02
2425276.500000000 = A.D. 1928-Jan-31 00:00:00.0000 TDB 
 X = 7.253344310688633E+08 Y = 1.472568699493747E+08 Z =-1.687564453511969E+07
 VX=-2.767141246955090E+00 VY= 1.341490162870670E+01 VZ= 7.137644134197707E-03
 LT= 2.469454567875898E+03 RG= 7.403238548228432E+08 RR=-4.293641176545601E-02
2425286.500000000 = A.D. 1928-Feb-10 00:00:00.0000 TDB 
 X = 7.228553781998545E+08 Y = 1.588300270018055E+08 Z =-1.686738245303302E+07
 VX=-2.971377222370959E+00 VY= 1.337429927125006E+01 VZ= 1.199286332406135E-02
 LT= 2.469346370948620E+03 RG= 7.402914182000666E+08 RR=-3.220080510843995E-02
